GLOBALSTAR M035         
1 25851U 99037A   25155.57034757 -.00000054  00000+0  34581-3 0  9998
2 25851  51.9953  83.1001 0014129 322.9233 208.0811 11.04538821 94869
GLOBALSTAR M032         
1 25852U 99037B   25155.64813696 -.00000045  00000+0  69464-3 0  9992
2 25852  51.9957 268.9918 0012690 145.3141 214.8489 11.19060946133381
GLOBALSTAR M051         
1 25853U 99037C   25155.89043050 -.00000062  00000+0  24630-3 0  9994
2 25853  51.9804  70.5546 0000295 139.3918 220.6915 11.42205175130983
GLOBALSTAR M030         
1 25854U 99037D   25155.53654103 -.00000109  00000+0 -71593-3 0  9996
2 25854  51.9870 238.3220 0002838  26.9830 333.1134 11.55109461148582
GLOBALSTAR M048         
1 25872U 99041A   25155.88056010 -.00000057  00000+0  34601-3 0  9992
2 25872  51.9396   5.1383 0013449 160.2871 335.7877 11.33857037123582
GLOBALSTAR M026         
1 25873U 99041B   25155.40328347  .00000014  00000+0  28830-2 0  9994
2 25873  51.9976 201.5705 0002444 244.7909 127.9148 11.06841495147073
GLOBALSTAR M043         
1 25874U 99041C   25155.59607400 -.00000058  00000+0  29343-3 0  9995
2 25874  51.9379 112.9544 0013645 292.1142 239.1324 11.25694518121457
GLOBALSTAR M028         
1 25875U 99041D   25155.92475046 -.00000107  00000+0 -41563-4 0  9997
2 25875  51.9612 229.6312 0063248  45.2609 315.3377 12.50583065188648
